     3.05           N: GNSS NAV DATA    M: Mixed            RINEX VERSION / TYPE
rtklib_java         USER                20260627 024113     PGM / RUN BY / DATE 
                                                            END OF HEADER       
C01 2026 06 07 17 00 00-7.732305675745E-07-8.881784197001E-16 0.000000000000E+00
     1.000000000000E+00-2.061093750000E+02-7.886042771050E-10 2.666082456373E+00
    -6.461981683969E-06 4.399488680065E-04 1.418637111783E-05 6.493553165436E+03
     6.120000000000E+04-7.450580596924E-08 1.317817986352E+00-7.078051567078E-08
     9.627451444854E-02-4.352187500000E+02 2.921917286269E+00 1.672926826974E-09
    -2.621537768999E-10 0.000000000000E+00 1.066000000000E+03 0.000000000000E+00
     2.000000000000E+00 0.000000000000E+00 4.500000000000E-09 4.500000000000E-09
     6.124800000000E+04 1.000000000000E+00 0.000000000000E+00 0.000000000000E+00
C02 2026 06 07 17 00 00 2.773012965918E-07 1.332267629550E-14 0.000000000000E+00
     1.000000000000E+00 1.582031250000E+02-2.367955777720E-10 2.664312388402E+00
     5.376525223255E-06 2.572356024757E-04 9.288545697927E-06 6.493376724243E+03
     6.120000000000E+04 7.916241884232E-09 1.773799488246E+00-4.610046744347E-08
     1.104808416962E-01-2.838125000000E+02 1.423799797582E+00 1.322197931994E-09
    -1.500062483624E-11 0.000000000000E+00 1.066000000000E+03 0.000000000000E+00
     2.000000000000E+00 0.000000000000E+00 4.730000000000E-08 4.730000000000E-08
     6.126300000000E+04 1.000000000000E+00 0.000000000000E+00 0.000000000000E+00
C03 2026 06 07 17 00 00-3.505265340209E-07-6.394884621841E-14 0.000000000000E+00
     1.000000000000E+00 2.242343750000E+02-1.163619898011E-09-2.525855622997E+00
     7.539987564087E-06 2.711664419621E-04 1.336587592959E-05 6.493441137314E+03
     6.120000000000E+04 4.563480615616E-08 1.791546628765E+00 3.259629011154E-08
     9.292155156132E-02-4.156406250000E+02 8.457038305705E-01 2.039370662260E-09
     1.214336296267E-11 0.000000000000E+00 1.066000000000E+03 0.000000000000E+00
     2.000000000000E+00 0.000000000000E+00 3.530000000000E-08 3.530000000000E-08
     6.127800000000E+04 1.000000000000E+00 0.000000000000E+00 0.000000000000E+00
C06 2026 06 07 16 00 00 2.928591566160E-04 1.819877581966E-12 0.000000000000E+00
     1.000000000000E+00 7.889062500000E+01 1.128261282325E-09-1.333890269998E-01
     2.585817128420E-06 2.435617614537E-03 4.474539309740E-06 6.492951673508E+03
     5.760000000000E+04-6.845220923424E-08 2.485150284393E+00-4.069879651070E-07
     1.024394321975E+00 1.080156250000E+02-2.385356427921E+00-2.279737817374E-09
     3.189418566371E-10 0.000000000000E+00 1.066000000000E+03 0.000000000000E+00
     2.000000000000E+00 0.000000000000E+00 2.300000000000E-09 2.300000000000E-09
     6.148800000000E+04 1.000000000000E+00 0.000000000000E+00 0.000000000000E+00
C07 2026 06 07 17 00 00-2.554326783866E-05-7.043254868222E-13 0.000000000000E+00
     1.000000000000E+00-2.942031250000E+02 6.825284300487E-10-1.787770898645E+00
    -9.487848728895E-06 3.891788306646E-03 2.454454079270E-05 6.493514135361E+03
     6.120000000000E+04 4.377216100693E-08-1.683460123146E+00-2.118758857250E-07
     9.633740734485E-01-5.058593750000E+02-2.539861866939E+00-1.720785963357E-09
     7.714607058635E-11 0.000000000000E+00 1.066000000000E+03 0.000000000000E+00
     2.000000000000E+00 0.000000000000E+00 6.400000000000E-09 6.400000000000E-09
     6.123300000000E+04 1.000000000000E+00 0.000000000000E+00 0.000000000000E+00
C08 2026 06 07 17 00 00-2.386464038864E-04-3.327116360197E-12 0.000000000000E+00
     1.000000000000E+00 2.403125000000E+01 1.438988511076E-09 2.711983369016E+00
     1.185107976198E-06 4.490216961130E-03 7.736962288618E-06 6.492940189362E+03
     6.120000000000E+04 1.280568540096E-07 4.464890595015E-01 1.057051122189E-07
     9.573000536755E-01 3.968750000000E+00-2.924420387379E+00-2.272951820424E-09
    -5.296649198128E-10 0.000000000000E+00 1.066000000000E+03 0.000000000000E+00
     2.000000000000E+00 0.000000000000E+00 9.000000000000E-10 9.000000000000E-10
     6.129300000000E+04 1.000000000000E+00 0.000000000000E+00 0.000000000000E+00
C09 2026 06 07 17 00 00-5.062002455816E-04-2.042277458258E-11 0.000000000000E+00
     2.000000000000E+00 5.265625000000E+01 9.950414474703E-10-4.234306807875E-01
     1.542735844851E-06 5.606169695966E-03 5.574431270361E-06 6.493663660049E+03
     6.120000000000E+04-9.266659617424E-08 2.491877378592E+00-2.793967723846E-07
     1.051125416507E+00 8.845312500000E+01-2.258540609305E+00-2.137946196898E-09
     3.342996392075E-10 0.000000000000E+00 1.066000000000E+03 0.000000000000E+00
     2.000000000000E+00 0.000000000000E+00-1.030000000000E-08 2.800000000000E-09
     6.130800000000E+04 2.000000000000E+00 0.000000000000E+00 0.000000000000E+00
C10 2026 06 07 17 00 00-7.820987375453E-04 5.221600929417E-12 0.000000000000E+00
     1.000000000000E+00-2.089375000000E+02 7.307447241652E-10-2.424724808618E+00
    -6.683636456728E-06 1.035716570914E-02 2.461159601808E-05 6.493837667465E+03
     6.120000000000E+04-1.164153218269E-08-1.610189223073E+00-1.820735633373E-07
     9.624590006349E-01-5.133281250000E+02-2.137108321905E+00-1.675426931114E-09
     1.610781381224E-10 0.000000000000E+00 1.066000000000E+03 0.000000000000E+00
     2.000000000000E+00 0.000000000000E+00-2.900000000000E-09 4.800000000000E-09
     6.132300000000E+04 1.000000000000E+00 0.000000000000E+00 0.000000000000E+00
C11 2026 06 07 17 00 00-7.077807094902E-04-2.166977708384E-11 0.000000000000E+00
     1.000000000000E+00-5.140625000000E+00 4.083384375064E-09-7.864367094228E-01
    -2.449378371239E-07 1.774476841092E-04 7.723458111286E-06 5.282640470505E+03
     6.120000000000E+04 1.862645149231E-08 8.231664394092E-01-6.193295121193E-08
     9.509514324756E-01 1.990781250000E+02-2.097983822819E-01-6.991719804623E-09
    -2.517962026082E-10 0.000000000000E+00 1.066000000000E+03 0.000000000000E+00
     2.000000000000E+00 0.000000000000E+00 2.900000000000E-09 2.900000000000E-09
     6.397800000000E+04 1.000000000000E+00 0.000000000000E+00 0.000000000000E+00
C12 2026 06 07 17 00 00 6.344476714730E-04-4.932942943014E-12 0.000000000000E+00
     1.000000000000E+00-1.692187500000E+01 3.763371045224E-09-2.976318857456E+00
    -1.050997525454E-06 2.495241351426E-04 3.956258296967E-06 5.282645988464E+03
     6.120000000000E+04 2.235174179077E-08 2.918690160669E+00 1.140870153904E-07
     9.732545373066E-01 2.845781250000E+02-6.822291837553E-02-6.894930058655E-09
    -5.607376426879E-11 0.000000000000E+00 1.066000000000E+03 0.000000000000E+00
     2.000000000000E+00 0.000000000000E+00 8.000000000000E-10 8.000000000000E-10
     6.133800000000E+04 1.000000000000E+00 0.000000000000E+00 0.000000000000E+00
C19 2026 06 07 17 00 00-9.380191331729E-04 1.985966946449E-12 0.000000000000E+00
     1.000000000000E+00-1.918750000000E+01 3.543719038694E-09-3.043281932725E+00
    -1.138076186180E-06 9.505299385637E-04 4.662200808525E-06 5.282631608963E+03
     6.120000000000E+04-1.369044184685E-07 2.932431638383E+00 9.406358003616E-08
     9.896173681870E-01 2.800468750000E+02-4.269575992635E-01-6.844927975868E-09
    -2.000083311498E-11 0.000000000000E+00 1.066000000000E+03 0.000000000000E+00
     2.000000000000E+00 0.000000000000E+00 9.300000000000E-09 9.300000000000E-09
     6.135300000000E+04 1.000000000000E+00 0.000000000000E+00 0.000000000000E+00
C20 2026 06 07 17 00 00-9.026597253978E-04 4.130917830025E-12 0.000000000000E+00
     1.000000000000E+00-2.025000000000E+01 3.587649440000E-09-2.826366471543E+00
    -1.140404492617E-06 9.083440527320E-04 4.008878022432E-06 5.282638956070E+03
     6.120000000000E+04-3.678724169731E-08 2.933058776734E+00-1.625157892704E-07
     9.896016505952E-01 2.909375000000E+02 7.402534887005E-02-6.944217825974E-09
     5.000208278745E-12 0.000000000000E+00 1.066000000000E+03 0.000000000000E+00
     2.000000000000E+00 0.000000000000E+00 1.190000000000E-08 1.190000000000E-08
     6.136800000000E+04 1.000000000000E+00 0.000000000000E+00 0.000000000000E+00
C22 2026 06 07 17 00 00 4.553295439109E-04 8.455458555545E-13 0.000000000000E+00
     1.000000000000E+00-2.337500000000E+01 3.521218101439E-09 1.466005875086E+00
    -1.146923750639E-06 8.616823470220E-04 4.428438842297E-06 5.282634639740E+03
     6.120000000000E+04-2.700835466385E-08 2.933552306777E+00 8.754432201385E-08
     9.889012858793E-01 2.854843750000E+02 5.495753886609E-01-6.823141354082E-09
     4.357324357192E-11 0.000000000000E+00 1.066000000000E+03 0.000000000000E+00
     2.000000000000E+00 0.000000000000E+00 1.340000000000E-08 1.340000000000E-08
     6.138300000000E+04 1.000000000000E+00 0.000000000000E+00 0.000000000000E+00
C27 2026 06 07 17 00 00 6.427229382098E-04 4.808597964256E-12 0.000000000000E+00
     1.000000000000E+00 1.343750000000E+00 4.183745698373E-09-1.335656446606E+00
     1.401640474796E-07 7.047457620502E-04 8.407514542341E-06 5.282658081055E+03
     6.120000000000E+04 3.725290298462E-08 8.244553726413E-01-1.303851604462E-08
     9.484096415713E-01 1.890625000000E+02 1.606746126877E+00-6.990648331420E-09
    -2.614394614315E-10 0.000000000000E+00 1.066000000000E+03 0.000000000000E+00
     2.000000000000E+00 0.000000000000E+00-4.300000000000E-09-4.300000000000E-09
     6.162300000000E+04 1.000000000000E+00 0.000000000000E+00 0.000000000000E+00
C30 2026 06 07 17 00 00 4.641660489142E-04 7.704947790899E-12 0.000000000000E+00
     1.000000000000E+00-5.000000000000E+00 4.214818421248E-09-1.530260193685E+00
    -1.597218215466E-07 5.522904684767E-04 7.612630724907E-06 5.282647762299E+03
     6.120000000000E+04 2.840533852577E-08 7.836343406243E-01-2.561137080193E-08
     9.460572151718E-01 2.005468750000E+02 9.873728992902E-01-7.061008405057E-09
    -2.628680923683E-10 0.000000000000E+00 1.066000000000E+03 0.000000000000E+00
     2.000000000000E+00 0.000000000000E+00-9.700000000000E-09-9.700000000000E-09
     6.189300000000E+04 1.000000000000E+00 0.000000000000E+00 0.000000000000E+00
